SL-16 R/B               
1 22803U 93059B   26093.81553632  .00000070  00000+0  58483-4 0  9992
2 22803  70.9906 318.1439 0017096 179.3794 180.7354 14.17234811683096
ARIANE 40 R/B           
1 22830U 93061H   26093.76762537  .00000356  00000+0  14629-3 0  9995
2 22830  98.4871 162.1547 0010326 203.9260 156.1446 14.32875370697698
COSMOS 2278             
1 23087U 94023A   26093.49244014 -.00000001  00000+0  24198-4 0  9995
2 23087  71.0506 123.2078 0009319 336.5265  23.5431 14.14374884648310
SL-16 R/B               
1 23088U 94023B   26093.88119913  .00000200  00000+0  12768-3 0  9997
2 23088  71.0031  17.9816 0005577 263.6690  96.3797 14.15019482649659
SL-16 R/B               
1 23343U 94074B   26093.62554270  .00000832  00000+0  11806-3 0  9991
2 23343  97.7071 123.4294 0007660 131.8871 342.3107 14.79438623690935
SL-16 R/B               
1 23405U 94077B   26093.85297003 -.00000190  00000+0 -72619-4 0  9995
2 23405  70.9821 299.5516 0001614 190.4138 169.6951 14.15568226619797
ARIANE 40+ R/B          
1 23561U 95021B   26093.70631675  .00000499  00000+0  17288-3 0  9999
2 23561  98.4454 164.8446 0007854  72.1356  41.9891 14.39791754622848
SL-16 R/B               
1 23705U 95058B   26093.50785486 -.00000068  00000+0 -10658-4 0  9996
2 23705  71.0192 128.1524 0010269  80.2061 280.0221 14.15497860571369
SL-16 R/B               
1 24298U 96051B   26093.52843798  .00000145  00000+0  10536-3 0  9999
2 24298  70.7581 122.6662 0013136 107.2994 252.9564 14.12423229525157
ORBVIEW 2 (SEASTAR)     
1 24883U 97037A   26093.71957782  .00000475  00000+0  18147-3 0  9996
2 24883  98.8610 258.7003 0002104  15.5240 344.6009 14.35513875512060
SL-16 R/B               
1 25400U 98043G   26093.85002027  .00000117  00000+0  68031-4 0  9999
2 25400  98.8297  47.3985 0008971 305.6096  54.4247 14.26056012442571
SL-16 R/B               
1 25407U 98045B   26093.50659289  .00000044  00000+0  46437-4 0  9993
2 25407  71.0091 129.3870 0008204 331.4959  28.5714 14.16193398430612
ISS (ZARYA)             
1 25544U 98067A   26093.87567842  .00012431  00000+0  23534-3 0  9997
2 25544  51.6327 307.8415 0006253 268.9169  91.1103 15.48754008560234
CZ-4B R/B               
1 25732U 99025C   26093.71955705  .00000092  00000+0  65485-4 0  9995
2 25732  98.6573 137.4023 0035970 272.9155 196.5347 14.18270621391712
OKEAN-O                 
1 25860U 99039A   26093.72877823  .00001188  00000+0  16252-3 0  9991
2 25860  97.9390 153.3592 0000923 102.3809 257.7506 14.80378901438092
SL-16 R/B               
1 25861U 99039B   26093.68513277  .00001038  00000+0  13818-3 0  9996
2 25861  97.9913 152.7378 0015011 171.1642 188.9837 14.81768642440565
DELTA 2 R/B             
1 25876U 99041E   26093.71398056  .00001128  00000+0  22067-3 0  9991
2 25876  51.7611 201.3138 0502623  62.2245 302.8713 14.11897918366567
