[{"OBJECT_NAME":"SL-16 R/B","OBJECT_ID":"1993-059B","EPOCH":"2026-04-03T19:34:22.338048","MEAN_MOTION":14.17234811,"ECCENTRICITY":0.0017096,"INCLINATION":70.9906,"RA_OF_ASC_NODE":318.1439,"ARG_OF_PERICENTER":179.3794,"MEAN_ANOMALY":180.7354,"EPHEMERIS_TYPE":0,"CLASSIFICATION_TYPE":"U","NORAD_CAT_ID":22803,"ELEMENT_SET_NO":999,"REV_AT_EPOCH":68309,"BSTAR":5.8483e-5,"MEAN_MOTION_DOT":7.0e-7,"MEAN_MOTION_DDOT":0},{"OBJECT_NAME":"ARIANE 40 R/B","OBJECT_ID":"1993-061H","EPOCH":"2026-04-03T18:25:22.831968","MEAN_MOTION":14.3287537,"ECCENTRICITY":0.0010326,"INCLINATION":98.4871,"RA_OF_ASC_NODE":162.1547,"ARG_OF_PERICENTER":203.926,"MEAN_ANOMALY":156.1446,"EPHEMERIS_TYPE":0,"CLASSIFICATION_TYPE":"U","NORAD_CAT_ID":22830,"ELEMENT_SET_NO":999,"REV_AT_EPOCH":69769,"BSTAR":0.00014629,"MEAN_MOTION_DOT":3.56e-6,"MEAN_MOTION_DDOT":0},{"OBJECT_NAME":"COSMOS 2278","OBJECT_ID":"1994-023A","EPOCH":"2026-04-03T11:49:06.828096","MEAN_MOTION":14.14374884,"ECCENTRICITY":0.00093198,"INCLINATION":71.0506,"RA_OF_ASC_NODE":123.2078,"ARG_OF_PERICENTER":336.5265,"MEAN_ANOMALY":23.5431,"EPHEMERIS_TYPE":0,"CLASSIFICATION_TYPE":"U","NORAD_CAT_ID":23087,"ELEMENT_SET_NO":999,"REV_AT_EPOCH":64831,"BSTAR":2.4197813e-5,"MEAN_MOTION_DOT":-1.0e-8,"MEAN_MOTION_DDOT":0},{"OBJECT_NAME":"SL-16 R/B","OBJECT_ID":"1994-023B","EPOCH":"2026-04-03T21:08:55.604832","MEAN_MOTION":14.15019482,"ECCENTRICITY":0.0005577,"INCLINATION":71.0031,"RA_OF_ASC_NODE":17.9816,"ARG_OF_PERICENTER":263.669,"MEAN_ANOMALY":96.3797,"EPHEMERIS_TYPE":0,"CLASSIFICATION_TYPE":"U","NORAD_CAT_ID":23088,"ELEMENT_SET_NO":999,"REV_AT_EPOCH":64965,"BSTAR":0.00012768,"MEAN_MOTION_DOT":2.0e-6,"MEAN_MOTION_DDOT":0},{"OBJECT_NAME":"SL-16 R/B","OBJECT_ID":"1994-074B","EPOCH":"2026-04-03T15:00:46.889280","MEAN_MOTION":14.79438623,"ECCENTRICITY":0.000766,"INCLINATION":97.7071,"RA_OF_ASC_NODE":123.4294,"ARG_OF_PERICENTER":131.8871,"MEAN_ANOMALY":342.3107,"EPHEMERIS_TYPE":0,"CLASSIFICATION_TYPE":"U","NORAD_CAT_ID":23343,"ELEMENT_SET_NO":999,"REV_AT_EPOCH":69093,"BSTAR":0.00011806,"MEAN_MOTION_DOT":8.32e-6,"MEAN_MOTION_DDOT":0},{"OBJECT_NAME":"SL-16 R/B","OBJECT_ID":"1994-077B","EPOCH":"2026-04-03T20:28:16.610592","MEAN_MOTION":14.15568226,"ECCENTRICITY":0.0001614,"INCLINATION":70.9821,"RA_OF_ASC_NODE":299.5516,"ARG_OF_PERICENTER":190.4138,"MEAN_ANOMALY":169.6951,"EPHEMERIS_TYPE":0,"CLASSIFICATION_TYPE":"U","NORAD_CAT_ID":23405,"ELEMENT_SET_NO":999,"REV_AT_EPOCH":61979,"BSTAR":-7.2619e-5,"MEAN_MOTION_DOT":-1.9e-6,"MEAN_MOTION_DDOT":0},{"OBJECT_NAME":"ARIANE 40+ R/B","OBJECT_ID":"1995-021B","EPOCH":"2026-04-03T16:57:05.767200","MEAN_MOTION":14.39791754,"ECCENTRICITY":0.0007854,"INCLINATION":98.4454,"RA_OF_ASC_NODE":164.8446,"ARG_OF_PERICENTER":72.1356,"MEAN_ANOMALY":41.9891,"EPHEMERIS_TYPE":0,"CLASSIFICATION_TYPE":"U","NORAD_CAT_ID":23561,"ELEMENT_SET_NO":999,"REV_AT_EPOCH":62284,"BSTAR":0.00017288,"MEAN_MOTION_DOT":4.99e-6,"MEAN_MOTION_DDOT":0},{"OBJECT_NAME":"SL-16 R/B","OBJECT_ID":"1995-058B","EPOCH":"2026-04-03T12:11:18.659904","MEAN_MOTION":14.1549786,"ECCENTRICITY":0.00102697,"INCLINATION":71.0192,"RA_OF_ASC_NODE":128.1524,"ARG_OF_PERICENTER":80.2061,"MEAN_ANOMALY":280.0221,"EPHEMERIS_TYPE":0,"CLASSIFICATION_TYPE":"U","NORAD_CAT_ID":23705,"ELEMENT_SET_NO":999,"REV_AT_EPOCH":57136,"BSTAR":-1.0657853e-5,"MEAN_MOTION_DOT":-6.8e-7,"MEAN_MOTION_DDOT":0},{"OBJECT_NAME":"SL-16 R/B","OBJECT_ID":"1996-051B","EPOCH":"2026-04-03T12:40:57.041472","MEAN_MOTION":14.12423229,"ECCENTRICITY":0.00131365,"INCLINATION":70.7581,"RA_OF_ASC_NODE":122.6662,"ARG_OF_PERICENTER":107.2994,"MEAN_ANOMALY":252.9564,"EPHEMERIS_TYPE":0,"CLASSIFICATION_TYPE":"U","NORAD_CAT_ID":24298,"ELEMENT_SET_NO":999,"REV_AT_EPOCH":52515,"BSTAR":0.00010535924,"MEAN_MOTION_DOT":1.45e-6,"MEAN_MOTION_DDOT":0},{"OBJECT_NAME":"ORBVIEW 2 (SEASTAR)","OBJECT_ID":"1997-037A","EPOCH":"2026-04-03T17:16:11.523648","MEAN_MOTION":14.35513875,"ECCENTRICITY":0.0002104,"INCLINATION":98.861,"RA_OF_ASC_NODE":258.7003,"ARG_OF_PERICENTER":15.524,"MEAN_ANOMALY":344.6009,"EPHEMERIS_TYPE":0,"CLASSIFICATION_TYPE":"U","NORAD_CAT_ID":24883,"ELEMENT_SET_NO":999,"REV_AT_EPOCH":51206,"BSTAR":0.00018147,"MEAN_MOTION_DOT":4.75e-6,"MEAN_MOTION_DDOT":0},{"OBJECT_NAME":"SL-16 R/B","OBJECT_ID":"1998-043G","EPOCH":"2026-04-03T20:24:01.751328","MEAN_MOTION":14.26056012,"ECCENTRICITY":0.0008971,"INCLINATION":98.8297,"RA_OF_ASC_NODE":47.3985,"ARG_OF_PERICENTER":305.6096,"MEAN_ANOMALY":54.4247,"EPHEMERIS_TYPE":0,"CLASSIFICATION_TYPE":"U","NORAD_CAT_ID":25400,"ELEMENT_SET_NO":999,"REV_AT_EPOCH":44257,"BSTAR":6.8031e-5,"MEAN_MOTION_DOT":1.17e-6,"MEAN_MOTION_DDOT":0},{"OBJECT_NAME":"SL-16 R/B","OBJECT_ID":"1998-045B","EPOCH":"2026-04-03T12:09:29.625696","MEAN_MOTION":14.16193398,"ECCENTRICITY":0.00082041,"INCLINATION":71.0091,"RA_OF_ASC_NODE":129.387,"ARG_OF_PERICENTER":331.4959,"MEAN_ANOMALY":28.5714,"EPHEMERIS_TYPE":0,"CLASSIFICATION_TYPE":"U","NORAD_CAT_ID":25407,"ELEMENT_SET_NO":999,"REV_AT_EPOCH":43061,"BSTAR":4.6436855e-5,"MEAN_MOTION_DOT":4.4e-7,"MEAN_MOTION_DDOT":0},{"OBJECT_NAME":"ISS (ZARYA)","OBJECT_ID":"1998-067A","EPOCH":"2026-04-03T21:00:58.615488","MEAN_MOTION":15.48754008,"ECCENTRICITY":0.0006253,"INCLINATION":51.6327,"RA_OF_ASC_NODE":307.8415,"ARG_OF_PERICENTER":268.9169,"MEAN_ANOMALY":91.1103,"EPHEMERIS_TYPE":0,"CLASSIFICATION_TYPE":"U","NORAD_CAT_ID":25544,"ELEMENT_SET_NO":999,"REV_AT_EPOCH":56023,"BSTAR":0.00023534,"MEAN_MOTION_DOT":0.00012431,"MEAN_MOTION_DDOT":0},{"OBJECT_NAME":"CZ-4B R/B","OBJECT_ID":"1999-025C","EPOCH":"2026-04-03T17:16:09.729120","MEAN_MOTION":14.18270621,"ECCENTRICITY":0.003597,"INCLINATION":98.6573,"RA_OF_ASC_NODE":137.4023,"ARG_OF_PERICENTER":272.9155,"MEAN_ANOMALY":196.5347,"EPHEMERIS_TYPE":0,"CLASSIFICATION_TYPE":"U","NORAD_CAT_ID":25732,"ELEMENT_SET_NO":999,"REV_AT_EPOCH":39171,"BSTAR":6.5485e-5,"MEAN_MOTION_DOT":9.2e-7,"MEAN_MOTION_DDOT":0},{"OBJECT_NAME":"OKEAN-O","OBJECT_ID":"1999-039A","EPOCH":"2026-04-03T17:29:26.439072","MEAN_MOTION":14.80378901,"ECCENTRICITY":9.23e-5,"INCLINATION":97.939,"RA_OF_ASC_NODE":153.3592,"ARG_OF_PERICENTER":102.3809,"MEAN_ANOMALY":257.7506,"EPHEMERIS_TYPE":0,"CLASSIFICATION_TYPE":"U","NORAD_CAT_ID":25860,"ELEMENT_SET_NO":999,"REV_AT_EPOCH":43809,"BSTAR":0.00016252,"MEAN_MOTION_DOT":1.188e-5,"MEAN_MOTION_DDOT":0},{"OBJECT_NAME":"SL-16 R/B","OBJECT_ID":"1999-039B","EPOCH":"2026-04-03T16:26:35.471328","MEAN_MOTION":14.81768642,"ECCENTRICITY":0.0015011,"INCLINATION":97.9913,"RA_OF_ASC_NODE":152.7378,"ARG_OF_PERICENTER":171.1642,"MEAN_ANOMALY":188.9837,"EPHEMERIS_TYPE":0,"CLASSIFICATION_TYPE":"U","NORAD_CAT_ID":25861,"ELEMENT_SET_NO":999,"REV_AT_EPOCH":44056,"BSTAR":0.00013818,"MEAN_MOTION_DOT":1.038e-5,"MEAN_MOTION_DDOT":0},{"OBJECT_NAME":"DELTA 2 R/B","OBJECT_ID":"1999-041E","EPOCH":"2026-04-03T17:08:07.920384","MEAN_MOTION":14.11897918,"ECCENTRICITY":0.0502623,"INCLINATION":51.7611,"RA_OF_ASC_NODE":201.3138,"ARG_OF_PERICENTER":62.2245,"MEAN_ANOMALY":302.8713,"EPHEMERIS_TYPE":0,"CLASSIFICATION_TYPE":"U","NORAD_CAT_ID":25876,"ELEMENT_SET_NO":999,"REV_AT_EPOCH":36656,"BSTAR":0.00022067,"MEAN_MOTION_DOT":1.128e-5,"MEAN_MOTION_DDOT":0}]
